HIMAWARI-8              
1 40267U 14060A   24057.51519601 -.00000273  00000+0  00000+0 0  9997
2 40267   0.0314 207.2030 0000942 126.9041 147.8692  1.00273312 34329
